OBJECT_NAME,OBJECT_ID,EPOCH,MEAN_MOTION,ECCENTRICITY,INCLINATION,RA_OF_ASC_NODE,ARG_OF_PERICENTER,MEAN_ANOMALY,EPHEMERIS_TYPE,CLASSIFICATION_TYPE,NORAD_CAT_ID,ELEMENT_SET_NO,REV_AT_EPOCH,BSTAR,MEAN_MOTION_DOT,MEAN_MOTION_DDOT
STARLINK-31671,2024-073F,2026-07-18T06:30:21.871872,15.27573133,.00013028,43.0038,300.7962,274.0529,86.0174,0,U,59516,999,12614,.36679143E-4,.747E-5,0
STARLINK-31674,2024-073G,2026-07-18T07:29:22.276896,15.27584406,.00012531,43.0011,300.2479,276.9937,83.0772,0,U,59517,999,12615,-.32494003E-4,-.1156E-4,0
STARLINK-31679,2024-073J,2026-07-18T07:18:29.399616,15.27585498,.00020946,43.0057,289.8048,293.5547,66.5084,0,U,59519,999,12627,.46746743E-4,.1024E-4,0
STARLINK-31370,2024-073K,2026-07-18T06:26:40.415712,15.27580053,.0001184,43.0035,300.7797,262.6324,97.4393,0,U,59520,999,12614,-.54388084E-4,-.1758E-4,0
STARLINK-31404,2024-073L,2026-07-18T06:41:27.843072,15.27578239,.00012773,43.0018,300.8498,237.4114,122.6615,0,U,59521,999,12614,.55302716E-4,.126E-4,0
STARLINK-31453,2024-073M,2026-07-18T07:19:48.834912,15.27584006,.0001982,42.9991,282.5953,264.0895,95.9730,0,U,59522,999,12635,.25019702E-3,.663E-4,0
STARLINK-31476,2024-073N,2026-07-18T07:55:17.944320,15.27562861,.00022559,42.9975,300.3719,167.5275,192.5633,0,U,59523,999,12615,-.14274002E-3,-.4186E-4,0
STARLINK-31538,2024-073Q,2026-07-18T07:18:15.915168,15.27571700,.00016824,43.0028,300.1860,272.7907,87.2752,0,U,59525,999,12615,-.16695634E-4,-.722E-5,0
STARLINK-31564,2024-073R,2026-07-18T07:07:09.559488,15.27576131,.0001246,43.0016,300.1322,269.6283,90.4426,0,U,59526,999,12615,.15603264E-4,.167E-5,0
STARLINK-31452,2024-073S,2026-07-18T06:35:54.621600,15.27577939,.00012783,43.0037,300.8239,263.4675,96.6032,0,U,59527,999,12614,.30580445E-4,.579E-5,0
STARLINK-31513,2024-073U,2026-07-18T06:32:53.975616,15.27581055,.00012634,43.0033,297.3124,250.4094,109.6621,0,U,59529,999,12618,.8765914E-5,-.21E-6,0
STARLINK-31392,2024-073V,2026-07-18T07:44:09.940992,15.27572906,.00016015,43.0030,300.3200,270.3301,89.7367,0,U,59530,999,12615,-.4485471E-5,-.386E-5,0
STARLINK-31619,2024-073W,2026-07-18T07:23:48.456672,15.27571386,.00010774,43.0012,300.2149,259.3592,100.7138,0,U,59531,999,12727,-.33912008E-4,-.1195E-4,0
STARLINK-31509,2024-073Y,2026-07-18T06:47:01.135392,15.27577343,.00016585,43.0027,300.8933,273.7201,86.3461,0,U,59533,999,12614,.41380188E-4,.876E-5,0
STARLINK-31734,2024-074A,2026-07-17T19:56:18.242016,15.27581527,.000075,43.0005,317.6643,259.6249,100.4519,0,U,59534,999,12604,.66862341E-4,.1579E-4,0
STARLINK-31738,2024-074B,2026-07-18T01:03:16.245792,15.27575269,.00016066,43.0033,323.5250,278.7456,81.3214,0,U,59535,999,12599,.6132529E-5,-.94E-6,0
STARLINK-31721,2024-074C,2026-07-17T17:15:30.703968,15.27575451,.00011044,43.0017,328.9301,265.7035,94.3690,0,U,59536,999,12590,-.18978384E-4,-.784E-5,0
STARLINK-31737,2024-074D,2026-07-17T17:35:51.395136,15.27589513,.00012822,43.0048,329.0365,273.6428,86.4277,0,U,59537,999,12590,-.88828777E-4,-.2706E-4,0
STARLINK-31539,2024-074F,2026-07-17T17:52:31.443168,15.27570098,.00016336,43.0049,329.1225,261.9239,98.1427,0,U,59539,999,12590,-.35248742E-4,-.1232E-4,0
STARLINK-31397,2024-074G,2026-07-18T02:03:39.256128,15.27575668,.00015504,43.0039,327.3803,259.7054,100.3623,0,U,59540,999,12595,.15660273E-4,.169E-5,0
STARLINK-31481,2024-074H,2026-07-17T16:55:07.765536,15.27601958,.0001443,43.0025,328.8229,255.7351,104.3341,0,U,59541,999,12590,.3397142E-5,-.169E-5,0
STARLINK-31540,2024-074J,2026-07-18T01:11:50.795808,15.27575884,.00012269,43.0023,327.1093,267.7463,92.3248,0,U,59542,999,12595,-.8902568E-5,-.507E-5,0
STARLINK-31574,2024-074K,2026-07-17T17:58:04.255104,15.27575966,.00013035,43.0048,329.1508,271.2102,88.8600,0,U,59543,999,12590,.13654439E-4,.114E-5,0
STARLINK-31556,2024-074L,2026-07-17T18:01:46.346304,15.27574905,.00011885,43.0029,329.1733,250.4264,109.6460,0,U,59544,999,12590,-.25428526E-4,-.962E-5,0
STARLINK-31582,2024-074M,2026-07-17T18:18:25.342848,15.27577779,.00015027,43.0041,329.2522,261.8475,98.2206,0,U,59545,999,12590,.9878772E-5,.1E-6,0
STARLINK-31519,2024-074N,2026-07-17T09:13:37.547904,15.27577180,.0001676,43.0028,330.7199,277.3645,82.7016,0,U,59546,999,12585,.27781E-4,.502E-5,0
STARLINK-31736,2024-074P,2026-07-18T07:48:21.938688,15.27575893,.00013569,43.0045,318.8078,265.4784,94.5913,0,U,59547,999,12607,.23112838E-4,.374E-5,0
STARLINK-31675,2024-074Q,2026-07-18T01:17:23.771904,15.27576509,.00013218,43.0016,327.1369,276.7501,83.3200,0,U,59548,999,12595,.4370412E-4,.941E-5,0
STARLINK-31722,2024-074R,2026-07-17T18:33:00.875520,15.27576541,.00014474,43.0022,328.4730,261.8433,98.2255,0,U,59549,999,12591,.26079811E-4,.455E-5,0
STARLINK-31741,2024-074S,2026-07-18T01:00:44.988768,15.27550514,.0000922,43.0016,327.0545,260.6561,99.4187,0,U,59550,999,12595,.19247421E-3,.5033E-4,0
