STARLINK-31671          
1 59516U 24073F   26199.27108648  .00000747  00000+0  36679-4 0  9997
2 59516  43.0038 300.7962 0001302 274.0529  86.0174 15.27573133126145
STARLINK-31674          
1 59517U 24073G   26199.31206339 -.00001156  00000+0 -32494-4 0  9997
2 59517  43.0011 300.2479 0001253 276.9937  83.0772 15.27584406126151
STARLINK-31679          
1 59519U 24073J   26199.30450694  .00001024  00000+0  46747-4 0  9991
2 59519  43.0057 289.8048 0002094 293.5547  66.5084 15.27585498126270
STARLINK-31370          
1 59520U 24073K   26199.26852333 -.00001758  00000+0 -54388-4 0  9990
2 59520  43.0035 300.7797 0001184 262.6324  97.4393 15.27580053126145
STARLINK-31404          
1 59521U 24073L   26199.27879448  .00001260  00000+0  55303-4 0  9992
2 59521  43.0018 300.8498 0001277 237.4114 122.6615 15.27578239126147
STARLINK-31453          
1 59522U 24073M   26199.30542633  .00006630  00000+0  25020-3 0  9998
2 59522  42.9991 282.5953 0001982 264.0895  95.9730 15.27584006126355
STARLINK-31476          
1 59523U 24073N   26199.33006880 -.00004186  00000+0 -14274-3 0  9996
2 59523  42.9975 300.3719 0002255 167.5275 192.5633 15.27562861126159
STARLINK-31538          
1 59525U 24073Q   26199.30435087 -.00000722  00000+0 -16696-4 0  9993
2 59525  43.0028 300.1860 0001682 272.7907  87.2752 15.27571700126155
STARLINK-31564          
1 59526U 24073R   26199.29663842  .00000167  00000+0  15603-4 0  9992
2 59526  43.0016 300.1322 0001246 269.6283  90.4426 15.27576131126151
STARLINK-31452          
1 59527U 24073S   26199.27493775  .00000579  00000+0  30580-4 0  9995
2 59527  43.0037 300.8239 0001278 263.4675  96.6032 15.27577939126148
STARLINK-31513          
1 59529U 24073U   26199.27284694 -.00000021  00000+0  87659-5 0  9998
2 59529  43.0033 297.3124 0001263 250.4094 109.6621 15.27581055126181
STARLINK-31392          
1 59530U 24073V   26199.32233728 -.00000386  00000+0 -44855-5 0  9994
2 59530  43.0030 300.3200 0001601 270.3301  89.7367 15.27572906126155
STARLINK-31619          
1 59531U 24073W   26199.30819973 -.00001195  00000+0 -33912-4 0  9995
2 59531  43.0012 300.2149 0001077 259.3592 100.7138 15.27571386127278
STARLINK-31509          
1 59533U 24073Y   26199.28265203  .00000876  00000+0  41380-4 0  9996
2 59533  43.0027 300.8933 0001658 273.7201  86.3461 15.27577343126147
STARLINK-31734          
1 59534U 24074A   26198.83076669  .00001579  00000+0  66862-4 0  9997
2 59534  43.0005 317.6643 0000750 259.6249 100.4519 15.27581527126045
STARLINK-31738          
1 59535U 24074B   26199.04393803 -.00000094  00000+0  61325-5 0  9996
2 59535  43.0033 323.5250 0001606 278.7456  81.3214 15.27575269125998
STARLINK-31721          
1 59536U 24074C   26198.71910537 -.00000784  00000+0 -18978-4 0  9991
2 59536  43.0017 328.9301 0001104 265.7035  94.3690 15.27575451125905
STARLINK-31737          
1 59537U 24074D   26198.73323374 -.00002706  00000+0 -88829-4 0  9999
2 59537  43.0048 329.0365 0001282 273.6428  86.4277 15.27589513125900
STARLINK-31539          
1 59539U 24074F   26198.74480837 -.00001232  00000+0 -35249-4 0  9991
2 59539  43.0049 329.1225 0001633 261.9239  98.1427 15.27570098125904
STARLINK-31397          
1 59540U 24074G   26199.08587102  .00000169  00000+0  15660-4 0  9995
2 59540  43.0039 327.3803 0001550 259.7054 100.3623 15.27575668125952
STARLINK-31481          
1 59541U 24074H   26198.70495099 -.00000169  00000+0  33971-5 0  9994
2 59541  43.0025 328.8229 0001443 255.7351 104.3341 15.27601958125901
STARLINK-31540          
1 59542U 24074J   26199.04989347 -.00000507  00000+0 -89026-5 0  9996
2 59542  43.0023 327.1093 0001226 267.7463  92.3248 15.27575884125952
STARLINK-31574          
1 59543U 24074K   26198.74866036  .00000114  00000+0  13654-4 0  9997
2 59543  43.0048 329.1508 0001303 271.2102  88.8600 15.27575966125907
STARLINK-31556          
1 59544U 24074L   26198.75123086 -.00000962  00000+0 -25429-4 0  9996
2 59544  43.0029 329.1733 0001188 250.4264 109.6460 15.27574905125904
STARLINK-31582          
1 59545U 24074M   26198.76279332  .00000010  00000+0  98788-5 0  9995
2 59545  43.0041 329.2522 0001502 261.8475  98.2206 15.27577779125909
STARLINK-31519          
1 59546U 24074N   26198.38446236  .00000502  00000+0  27781-4 0  9993
2 59546  43.0028 330.7199 0001676 277.3645  82.7016 15.27577180125852
STARLINK-31736          
1 59547U 24074P   26199.32525392  .00000374  00000+0  23113-4 0  9992
2 59547  43.0045 318.8078 0001356 265.4784  94.5913 15.27575893126073
STARLINK-31675          
1 59548U 24074Q   26199.05374736  .00000941  00000+0  43704-4 0  9995
2 59548  43.0016 327.1369 0001321 276.7501  83.3200 15.27576509125958
STARLINK-31722          
1 59549U 24074R   26198.77292680  .00000455  00000+0  26080-4 0  9999
2 59549  43.0022 328.4730 0001447 261.8433  98.2255 15.27576541125917
STARLINK-31741          
1 59550U 24074S   26199.04218737  .00005033  00000+0  19247-3 0  9996
2 59550  43.0016 327.0545 0000922 260.6561  99.4187 15.27550514125950
